{
  "type": "FeatureCollection",
  "features": [
    {
      "type": "Feature",
      "properties": {
        "norad_id": 29985,
        "name": "FENGYUN 1C DEB",
        "group": "fengyun-1c-debris",
        "lat": -71.2458137813648,
        "lon": 18.501301656221788,
        "alt_km": 851.887266591053,
        "timestamp": "2025-12-02T06:27:53.286587+00:00",
        "meta_object_name": "FENGYUN 1C DEB",
        "meta_object_id": "1999-025LK",
        "meta_epoch": "2025-12-01T19:43:07.758048",
        "meta_mean_motion": 14.10320305,
        "meta_eccentricity": 0.0027706,
        "meta_inclination": 98.7113,
        "meta_ra_of_asc_node": 351.2239,
        "meta_arg_of_pericenter": 240.767,
        "meta_mean_anomaly": 293.6856,
        "meta_ephemeris_type": 0,
        "meta_classification_type": "U",
        "meta_norad_cat_id": 29985,
        "meta_element_set_no": 999,
        "meta_rev_at_epoch": 97194,
        "meta_bstar": 4.063e-05,
        "meta_mean_motion_dot": 3e-07,
        "meta_mean_motion_ddot": 0,
        "tle_line1": "1 29985U 99025LK  25335.82161757  .00000030  00000+0  40630-4 0  9992",
        "tle_line2": "2 29985  98.7113 351.2239 0027706 240.7670 293.6856 14.10320305971945"
      },
      "geometry": {
        "type": "Point",
        "coordinates": [
          18.501301656221788,
          -71.2458137813648
        ]
      }
    },
    {
      "type": "Feature",
      "properties": {
        "norad_id": 29986,
        "name": "FENGYUN 1C DEB",
        "group": "fengyun-1c-debris",
        "lat": -80.58985835708935,
        "lon": 131.41664176450803,
        "alt_km": 810.3495768424336,
        "timestamp": "2025-12-02T06:27:53.286598+00:00",
        "meta_object_name": "FENGYUN 1C DEB",
        "meta_object_id": "1999-025LL",
        "meta_epoch": "2025-12-01T04:15:30.949920",
        "meta_mean_motion": 14.29073587,
        "meta_eccentricity": 0.00231249,
        "meta_inclination": 99.4001,
        "meta_ra_of_asc_node": 41.9491,
        "meta_arg_of_pericenter": 33.3306,
        "meta_mean_anomaly": 22.6967,
        "meta_ephemeris_type": 0,
        "meta_classification_type": "U",
        "meta_norad_cat_id": 29986,
        "meta_element_set_no": 999,
        "meta_rev_at_epoch": 97342,
        "meta_bstar": 0.001684048,
        "meta_mean_motion_dot": 4.23e-05,
        "meta_mean_motion_ddot": 0,
        "tle_line1": "1 29986U 99025LL  25335.17744155  .00004230  00000+0  16840-2 0  9990",
        "tle_line2": "2 29986  99.4001  41.9491 0023124  33.3306  22.6967 14.29073587973420"
      },
      "geometry": {
        "type": "Point",
        "coordinates": [
          131.41664176450803,
          -80.58985835708935
        ]
      }
    },
    {
      "type": "Feature",
      "properties": {
        "norad_id": 29987,
        "name": "FENGYUN 1C DEB",
        "group": "fengyun-1c-debris",
        "lat": 58.45881356503736,
        "lon": -146.4963207889855,
        "alt_km": 892.0742533958701,
        "timestamp": "2025-12-02T06:27:53.286608+00:00",
        "meta_object_name": "FENGYUN 1C DEB",
        "meta_object_id": "1999-025LM",
        "meta_epoch": "2025-12-01T15:10:53.811264",
        "meta_mean_motion": 14.14368153,
        "meta_eccentricity": 0.00809965,
        "meta_inclination": 98.8974,
        "meta_ra_of_asc_node": 227.6558,
        "meta_arg_of_pericenter": 265.5905,
        "meta_mean_anomaly": 153.0896,
        "meta_ephemeris_type": 0,
        "meta_classification_type": "U",
        "meta_norad_cat_id": 29987,
        "meta_element_set_no": 999,
        "meta_rev_at_epoch": 96216,
        "meta_bstar": 0.0028469704,
        "meta_mean_motion_dot": 5.578e-05,
        "meta_mean_motion_ddot": 0,
        "tle_line1": "1 29987U 99025LM  25335.63256726  .00005578  00000+0  28470-2 0  9992",
        "tle_line2": "2 29987  98.8974 227.6558 0080996 265.5905 153.0896 14.14368153962163"
      },
      "geometry": {
        "type": "Point",
        "coordinates": [
          -146.4963207889855,
          58.45881356503736
        ]
      }
    },
    {
      "type": "Feature",
      "properties": {
        "norad_id": 29988,
        "name": "FENGYUN 1C DEB",
        "group": "fengyun-1c-debris",
        "lat": 5.139330067274607,
        "lon": -99.37893058752782,
        "alt_km": 775.4898007268466,
        "timestamp": "2025-12-02T06:27:53.286618+00:00",
        "meta_object_name": "FENGYUN 1C DEB",
        "meta_object_id": "1999-025LN",
        "meta_epoch": "2025-12-01T20:18:16.087392",
        "meta_mean_motion": 14.50156761,
        "meta_eccentricity": 0.0121364,
        "meta_inclination": 98.696,
        "meta_ra_of_asc_node": 79.3954,
        "meta_arg_of_pericenter": 51.4741,
        "meta_mean_anomaly": 73.2233,
        "meta_ephemeris_type": 0,
        "meta_classification_type": "U",
        "meta_norad_cat_id": 29988,
        "meta_element_set_no": 999,
        "meta_rev_at_epoch": 97909,
        "meta_bstar": 0.0014974,
        "meta_mean_motion_dot": 6.348e-05,
        "meta_mean_motion_ddot": 0,
        "tle_line1": "1 29988U 99025LN  25335.84601953  .00006348  00000+0  14974-2 0  9992",
        "tle_line2": "2 29988  98.6960  79.3954 0121364  51.4741  73.2233 14.50156761979092"
      },
      "geometry": {
        "type": "Point",
        "coordinates": [
          -99.37893058752782,
          5.139330067274607
        ]
      }
    },
    {
      "type": "Feature",
      "properties": {
        "norad_id": 29989,
        "name": "FENGYUN 1C DEB",
        "group": "fengyun-1c-debris",
        "lat": -49.09281962504785,
        "lon": -34.518862684977194,
        "alt_km": 836.6632002926126,
        "timestamp": "2025-12-02T06:27:53.286628+00:00",
        "meta_object_name": "FENGYUN 1C DEB",
        "meta_object_id": "1999-025LP",
        "meta_epoch": "2025-12-01T20:48:44.237088",
        "meta_mean_motion": 14.15807511,
        "meta_eccentricity": 0.0122747,
        "meta_inclination": 98.6667,
        "meta_ra_of_asc_node": 314.9511,
        "meta_arg_of_pericenter": 226.9735,
        "meta_mean_anomaly": 193.0828,
        "meta_ephemeris_type": 0,
        "meta_classification_type": "U",
        "meta_norad_cat_id": 29989,
        "meta_element_set_no": 999,
        "meta_rev_at_epoch": 97457,
        "meta_bstar": 0.00017971,
        "meta_mean_motion_dot": 3.36e-06,
        "meta_mean_motion_ddot": 0,
        "tle_line1": "1 29989U 99025LP  25335.86717867  .00000336  00000+0  17971-3 0  9999",
        "tle_line2": "2 29989  98.6667 314.9511 0122747 226.9735 193.0828 14.15807511974578"
      },
      "geometry": {
        "type": "Point",
        "coordinates": [
          -34.518862684977194,
          -49.09281962504785
        ]
      }
    },
    {
      "type": "Feature",
      "properties": {
        "norad_id": 29992,
        "name": "FENGYUN 1C DEB",
        "group": "fengyun-1c-debris",
        "lat": -28.815482009469896,
        "lon": -23.46436574573626,
        "alt_km": 903.3816367445734,
        "timestamp": "2025-12-02T06:27:53.286638+00:00",
        "meta_object_name": "FENGYUN 1C DEB",
        "meta_object_id": "1999-025LS",
        "meta_epoch": "2025-12-01T17:50:13.280928",
        "meta_mean_motion": 14.11605281,
        "meta_eccentricity": 0.0088311,
        "meta_inclination": 98.7299,
        "meta_ra_of_asc_node": 331.175,
        "meta_arg_of_pericenter": 198.8861,
        "meta_mean_anomaly": 338.9756,
        "meta_ephemeris_type": 0,
        "meta_classification_type": "U",
        "meta_norad_cat_id": 29992,
        "meta_element_set_no": 999,
        "meta_rev_at_epoch": 97232,
        "meta_bstar": 0.00013155,
        "meta_mean_motion_dot": 2.05e-06,
        "meta_mean_motion_ddot": 0,
        "tle_line1": "1 29992U 99025LS  25335.74320927  .00000205  00000+0  13155-3 0  9992",
        "tle_line2": "2 29992  98.7299 331.1750 0088311 198.8861 338.9756 14.11605281972322"
      },
      "geometry": {
        "type": "Point",
        "coordinates": [
          -23.46436574573626,
          -28.815482009469896
        ]
      }
    },
    {
      "type": "Feature",
      "properties": {
        "norad_id": 29993,
        "name": "FENGYUN 1C DEB",
        "group": "fengyun-1c-debris",
        "lat": 61.8389169268678,
        "lon": -3.5388469647549905,
        "alt_km": 853.9383303898085,
        "timestamp": "2025-12-02T06:27:53.286648+00:00",
        "meta_object_name": "FENGYUN 1C DEB",
        "meta_object_id": "1999-025LT",
        "meta_epoch": "2025-12-01T19:56:08.361312",
        "meta_mean_motion": 14.08142532,
        "meta_eccentricity": 0.0038925,
        "meta_inclination": 98.795,
        "meta_ra_of_asc_node": 12.8439,
        "meta_arg_of_pericenter": 345.9435,
        "meta_mean_anomaly": 14.0648,
        "meta_ephemeris_type": 0,
        "meta_classification_type": "U",
        "meta_norad_cat_id": 29993,
        "meta_element_set_no": 999,
        "meta_rev_at_epoch": 97016,
        "meta_bstar": 0.00015566,
        "meta_mean_motion_dot": 2.24e-06,
        "meta_mean_motion_ddot": 0,
        "tle_line1": "1 29993U 99025LT  25335.83065233  .00000224  00000+0  15566-3 0  9998",
        "tle_line2": "2 29993  98.7950  12.8439 0038925 345.9435  14.0648 14.08142532970165"
      },
      "geometry": {
        "type": "Point",
        "coordinates": [
          -3.5388469647549905,
          61.8389169268678
        ]
      }
    }
  ]
}